1 45561U 20025AG  23178.83892373  .00217296  00000-0  18989-2 0  9998
2 45561  53.0401  39.0730 0002579 243.5653 116.5098 15.67740845178349
1 45561U 20025AG  23179.98621343  .00199830  00000-0  17152-2 0  9996
2 45561  53.0403  33.4169 0003021 254.4105 105.6578 15.68238231178525
1 45561U 20025AG  23180.81459313  .00244778  00000-0  20575-2 0  9991
2 45561  53.0399  29.3304 0003325 259.9902 100.0739 15.68602570178659
1 45561U 20025AG  23181.57906757  .00206185  00000-0  17179-2 0  9990
2 45561  53.0396  25.5562 0003593 264.7878  95.2728 15.68941352178773
1 45561U 20025AG  23181.83385921  .00198632  00000-0  16501-2 0  9998
2 45561  53.0396  24.2979 0003698 265.9728  94.0865 15.69037530178813
1 45561U 20025AG  23182.98021674  .00178606  00000-0  14606-2 0  9990
2 45561  53.0389  18.6345 0004188 273.5119  86.5418 15.69483563178993
1 45561U 20025AG  23183.55328046  .00202398  00000-0  16353-2 0  9994
2 45561  53.0385  15.8019 0004426 276.7665  83.2847 15.69695898179089
1 45561U 20025AG  23183.80794697  .00213794  00000-0  17165-2 0  9995
2 45561  53.0384  14.5429 0004570 278.3720  81.6779 15.69810963179122
1 45561U 20025AG  23184.25357392  .00199885  00000-0  15962-2 0  9999
2 45561  53.0384  12.3399 0004769 281.4073  78.6407 15.69984998179191
1 45561U 20025AG  23185.71742790  .00201142  00000-0  15673-2 0  9990
2 45561  53.0377   5.0966 0005387 287.7722  72.2707 15.70567544179424
1 45561U 20025AG  23186.92628867  .00219572  00000-0  16721-2 0  9993
2 45561  53.0377 359.1108 0006002 294.8060  65.2332 15.71053807179614
1 45561U 20025AG  23187.18073979  .00201431  00000-0  15321-2 0  9990
2 45561  53.0376 357.8503 0006107 296.3020  63.7369 15.71139503179651
1 45561U 20025AG  23187.75319291  .00222165  00000-0  16679-2 0  9997
2 45561  53.0374 355.0142 0006374 298.3061  61.7312 15.71382904179742
1 45561U 20025AG  23187.88039123  .00238501  00000-0  17816-2 0  9999
2 45561  53.0374 354.3836 0006438 298.9409  61.0962 15.71450792179764
1 45561U 20025AG  23188.96138218  .00246263  00000-0  17975-2 0  9994
2 45561  53.0370 349.0232 0006844 302.7674  57.2683 15.71973041179933
1 45561U 20025AG  23189.40639000  .00268630  00000-0  19365-2 0  9996
2 45561  53.0367 346.8158 0007085 305.6815  54.3542 15.72197882180002
1 45561U 20025AG  23189.72421357  .00240345  00000-0  17278-2 0  9999
2 45561  53.0367 345.2390 0007264 307.0038  53.0314 15.72347464180056
1 45561U 20025AG  23190.42332898  .00233693  00000-0  16601-2 0  9996
2 45561  53.0369 341.7686 0007628 310.4956  49.5396 15.72644949180168
1 45561U 20025AG  23190.67751978  .00214361  00000-0  15199-2 0  9999
2 45561  53.0369 340.5065 0007761 311.7338  48.3015 15.72747483180209
1 45561U 20025AG  23191.43998324  .00231172  00000-0  16115-2 0  9990
2 45561  53.0363 336.7191 0008121 315.1001  44.9359 15.73090809180326
1 45561U 20025AG  23192.39282263  .00245456  00000-0  16749-2 0  9997
2 45561  53.0364 331.9834 0008666 318.6971  41.3391 15.73541699180477
1 45561U 20025AG  23192.58335490  .00283028  00000-0  19121-2 0  9993
2 45561  53.0362 331.0359 0008730 319.9206  40.1167 15.73662801180506
1 45561U 20025AG  23193.40885047  .00274153  00000-0  18187-2 0  9993
2 45561  53.0353 326.9291 0009076 323.5145  36.5254 15.74108711180637
1 45561U 20025AG  23193.66279971  .00295030  00000-0  19392-2 0  9990
2 45561  53.0354 325.6654 0009199 324.2936  35.7466 15.74260962180676
1 45561U 20025AG  23194.61490027  .00284929  00000-0  18312-2 0  9999
2 45561  53.0355 320.9245 0009771 328.1238  31.9188 15.74802689180829
1 45561U 20025AG  23195.63012030  .00345896  00000-0  21489-2 0  9996
2 45561  53.0353 315.8653 0010266 331.9401  28.1063 15.75403627180985
1 45561U 20025AG  23196.70831505  .00313042  00000-0  18902-2 0  9995
2 45561  53.0352 310.4869 0010859 336.1793  23.8722 15.76138064181158
1 45561U 20025AG  23197.78603892  .00333780  00000-0  19506-2 0  9992
2 45561  53.0347 305.1058 0011278 339.7405  20.3165 15.76816389181323
1 45561U 20025AG  23198.73656094  .00382398  00000-0  21539-2 0  9998
2 45561  53.0344 300.3545 0011746 343.2030  16.8599 15.77507780181472
1 45561U 20025AG  23199.43332319  .00448609  00000-0  24412-2 0  9998
2 45561  53.0337 296.8688 0011994 345.6463  14.4214 15.78100225181586
1 45561U 20025AG  23199.74994362  .00406141  00000-0  21945-2 0  9997
2 45561  53.0332 295.2834 0012109 346.1640  13.9046 15.78368987181633
1 45561U 20025AG  23200.76280444  .00356264  00000-0  18717-2 0  9994
2 45561  53.0326 290.2070 0012668 349.7637  10.3123 15.79114998181794
1 45561U 20025AG  23201.64866337  .00403253  00000-0  20419-2 0  9996
2 45561  53.0313 285.7641 0012975 352.1950   7.8866 15.79799026181932
1 45561U 20025AG  23202.34441550  .00462955  00000-0  22654-2 0  9997
2 45561  53.0310 282.2706 0013143 354.5314   5.5561 15.80391700182040
1 45561U 20025AG  23202.59735152  .00430558  00000-0  20947-2 0  9995
2 45561  53.0308 281.0007 0013382 355.3432   4.7462 15.80596536182082
1 45561U 20025AG  23205.18769966  .00566189  00000-0  24057-2 0  9999
2 45561  53.0286 267.9602 0013798   3.8679 356.2447 15.83165774183099
1 45561U 20025AG  23206.44967040  .00629126  00000-0  24770-2 0  9995
2 45561  53.0272 261.5890 0014192   8.5329 351.5933 15.84614847183297
1 45561U 20025AG  23207.52141784  .00875950  00000-0  31389-2 0  9996
2 45561  53.0270 256.1663 0014034  11.9499 348.1855 15.85999897183460
1 45561U 20025AG  23207.52141784  .00875950  00000-0  31389-2 0  9996
2 45561  53.0270 256.1663 0014034  11.9499 348.1855 15.85999897182863
1 45561U 20025AG  23207.83644440  .00805111  00000-0  28450-2 0  9994
2 45561  53.0265 254.5692 0013751  13.1794 346.9586 15.86456501183519
1 45561U 20025AG  23207.83644440  .00805111  00000-0  28450-2 0  9994
2 45561  53.0265 254.5692 0013751  13.1794 346.9586 15.86456501182912
1 45561U 20025AG  23208.15137458  .00825302  00000-0  28416-2 0  9992
2 45561  53.0260 252.9725 0013599  14.1298 346.0104 15.86945683183569
1 45561U 20025AG  23208.15137458  .00825302  00000-0  28416-2 0  9992
2 45561  53.0260 252.9725 0013599  14.1298 346.0104 15.86945683182962
1 45561U 20025AG  23208.59211267  .00877638  00000-0  29042-2 0  9996
2 45561  53.0296 250.7298 0013057  13.1887 346.9697 15.87645120183033
1 45561U 20025AG  23208.59211282  .00782368  00000-0  26192-2 0  9991
2 45561  53.0261 250.7357 0013389  15.5407 344.6025 15.87619380183032
1 45561U 20025AG  23208.84387785  .00779152  24793-3  28018-2 0  9995
2 45561  53.0260 249.4572 0013315  16.2675 343.8773 15.88033170183678
1 45561U 20025AG  23210.10753574  .00936820  37579-3  30133-2 0  9994
2 45561  53.0238 243.0248 0012834  20.9965  12.6588 15.90273497183285
1 45561U 20025AG  23210.62059319  .00976822  41687-3  29859-2 0  9991
2 45561  53.0241 240.4062 0012033  23.3575  70.2520 15.91291106183362
1 45561U 20025AG  23211.51115105  .01079149  53190-3  30035-2 0  9993
2 45561  53.0227 235.8551 0011411  26.2016 135.0022 15.93124677183501
1 45561U 20025AG  23211.57019900  .01045629  49687-3  28943-2 0  9992
2 45561  53.0221 235.5503 0011391  27.2910 112.7620 15.93221956183515
1 45561U 20025AG  23211.82669500  .01207981  69167-3  32481-2 0  9995
2 45561  53.0185 234.2411 0011406  28.5852 143.7622 15.93812685183559
1 45561U 20025AG  23212.57405128  .01359499  93658-3  33049-2 0  9997
2 45561  53.0200 230.4086 0010432  30.4148 115.2365 15.95768451183675
1 45561U 20025AG  23213.33474537  .02057184  27880-2  44242-2 0  9999
2 45561  53.0200 226.4919 0009855  30.4741 171.2634 15.98468371183796
1 45561U 20025AG  23213.56626361  .01916286  23454-2  39055-2 0  9993
2 45561  53.0180 225.2965 0009022  37.2984  57.8515 15.99330340183838
1 45561U 20025AG  23213.93703750  .02385734  45754-2  45407-2 0  9996
2 45561  53.0155 223.3857 0008028  39.9148  32.4346 16.01105632183890
1 45561U 20025AG  23214.35632147  .02669358  71867-2  46288-2 0  9993
2 45561  53.0198 221.2080 0006582  46.1333 286.0704 16.03378587183956
1 45561U 20025AG  23214.38610255  .02690153  74502-2  46357-2 0  9995
2 45561  53.0198 221.0532 0006065  45.1190  99.0998 16.03557630183968
1 45561U 20025AG  23214.87105082  .03011801  16617-1  48840-2 0  9995
2 45561  53.0164 218.5277 0005155  53.2637  14.9269 16.06895240184045
1 45561U 20025AG  23215.26307870  .03407438  23860-1  46327-2 0  9999
2 45561  53.0164 216.4746 0004397  44.0880 135.3344 16.09981287184107
1 45561U 20025AG  23215.26307870  .03420834  26074-1  47677-2 0  9993
2 45561  53.0188 216.4712 0003732  52.0991 127.3355 16.10008279184106
1 45561U 20025AG  23215.72603009  .04381940  41274-1  43330-2 0  9993
2 45561  53.0159 214.0388 0003868  60.4087 287.5100 16.14529608184178
1 45561U 20025AG  23215.99236486  .04923592  64994-1  40816-2 0  9998
2 45561  53.0153 212.6297 0001599  75.4812  22.8516 16.17727906184227
1 45561U 20025AG  23216.37141854  .08401807  11913-4  31069-2 0  9995
2 45561  53.0227 210.6123 0000644 144.0407   7.2509 16.23841426184284
1 45561U 20025AG  23216.54729372  .11398485  12049-4  29591-2 0  9990
2 45561  53.0126 209.6722 0001079  19.5308  81.8458 16.27910502184315
1 45561U 20025AG  23216.74476873  .15082364  12165-4  21583-2 0  9999
2 45561  53.0119 208.5887 0002528 216.4221 325.2588 16.34035702184349
1 45561U 20025AG  23216.84828553  .21790398  12393-4  15957-2 0  9997
2 45561  53.0020 208.0261 0001873  14.0915  58.2545 16.39984439184368
